{
    "links": {
        "self": "http://www.neowsapp.com/rest/v1/neo/54087663?api_key=iIulBulltgU6a56xZRHN4H3l9WmuAYTsLGpBGhQ2"
    },
    "id": "54087663",
    "neo_reference_id": "54087663",
    "name": "(2020 VB2)",
    "designation": "2020 VB2",
    "nasa_jpl_url": "http://ssd.jpl.nasa.gov/sbdb.cgi?sstr=54087663",
    "absolute_magnitude_h": 23.043,
    "estimated_diameter": {
        "kilometers": {
            "estimated_diameter_min": 0.0654568311,
            "estimated_diameter_max": 0.146365924
        },
        "meters": {
            "estimated_diameter_min": 65.4568311326,
            "estimated_diameter_max": 146.3659240042
        },
        "miles": {
            "estimated_diameter_min": 0.0406729766,
            "estimated_diameter_max": 0.0909475406
        },
        "feet": {
            "estimated_diameter_min": 214.753389853,
            "estimated_diameter_max": 480.2031781098
        }
    },
    "is_potentially_hazardous_asteroid": false,
    "close_approach_data": [
        {
            "close_approach_date": "2017-11-06",
            "close_approach_date_full": "2017-Nov-06 22:13",
            "epoch_date_close_approach": 1510006380000,
            "relative_velocity": {
                "kilometers_per_second": "18.6378048839",
                "kilometers_per_hour": "67096.0975821275",
                "miles_per_hour": "41690.9057448503"
            },
            "miss_distance": {
                "astronomical": "0.3869247238",
                "lunar": "150.5137175582",
                "kilometers": "57883114.530818306",
                "miles": "35966899.5621563828"
            },
            "orbiting_body": "Earth"
        },
        {
            "close_approach_date": "2018-04-13",
            "close_approach_date_full": "2018-Apr-13 09:42",
            "epoch_date_close_approach": 1523612520000,
            "relative_velocity": {
                "kilometers_per_second": "13.3012726666",
                "kilometers_per_hour": "47884.5815999278",
                "miles_per_hour": "29753.6168280218"
            },
            "miss_distance": {
                "astronomical": "0.3965040723",
                "lunar": "154.2400841247",
                "kilometers": "59316164.662406001",
                "miles": "36857355.6229287738"
            },
            "orbiting_body": "Earth"
        },
        {
            "close_approach_date": "2020-11-10",
            "close_approach_date_full": "2020-Nov-10 18:39",
            "epoch_date_close_approach": 1605033540000,
            "relative_velocity": {
                "kilometers_per_second": "14.2151085396",
                "kilometers_per_hour": "51174.3907424466",
                "miles_per_hour": "31797.7762921608"
            },
            "miss_distance": {
                "astronomical": "0.1414475821",
                "lunar": "55.0231094369",
                "kilometers": "21160256.998810127",
                "miles": "13148374.0008566726"
            },
            "orbiting_body": "Earth"
        },
        {
            "close_approach_date": "2021-03-28",
            "close_approach_date_full": "2021-Mar-28 11:30",
            "epoch_date_close_approach": 1616931000000,
            "relative_velocity": {
                "kilometers_per_second": "13.7144047765",
                "kilometers_per_hour": "49371.8571953183",
                "miles_per_hour": "30677.7520445021"
            },
            "miss_distance": {
                "astronomical": "0.4671275431",
                "lunar": "181.7126142659",
                "kilometers": "69881285.466093197",
                "miles": "43422217.2736602386"
            },
            "orbiting_body": "Earth"
        },
        {
            "close_approach_date": "2023-11-08",
            "close_approach_date_full": "2023-Nov-08 19:18",
            "epoch_date_close_approach": 1699471080000,
            "relative_velocity": {
                "kilometers_per_second": "13.7032224494",
                "kilometers_per_hour": "49331.6008177223",
                "miles_per_hour": "30652.7382969897"
            },
            "miss_distance": {
                "astronomical": "0.3186902569",
                "lunar": "123.9705099341",
                "kilometers": "47675383.621992803",
                "miles": "29624109.6944865614"
            },
            "orbiting_body": "Earth"
        }
    ],
    "orbital_data": {
        "orbit_id": "7",
        "orbit_determination_date": "2020-11-23 05:21:46",
        "first_observation_date": "2020-11-10",
        "last_observation_date": "2020-11-21",
        "data_arc_in_days": 11,
        "observations_used": 53,
        "orbit_uncertainty": "8",
        "minimum_orbit_intersection": ".13788",
        "jupiter_tisserand_invariant": "4.812",
        "epoch_osculation": "2459167.5",
        "eccentricity": ".1983480675589444",
        "semi_major_axis": "1.326045301271339",
        "inclination": "26.2006892292134",
        "ascending_node_longitude": "224.5193139508841",
        "orbital_period": "557.7453630420525",
        "perihelion_distance": "1.063026778268551",
        "perihelion_argument": "231.9047463061347",
        "aphelion_distance": "1.589063824274128",
        "perihelion_time": "2459212.253538476443",
        "mean_anomaly": "331.1135673748224",
        "mean_motion": ".6454558367576368",
        "equinox": "J2000",
        "orbit_class": {
            "orbit_class_type": "AMO",
            "orbit_class_description": "Near-Earth asteroid orbits similar to that of 1221 Amor",
            "orbit_class_range": "1.017 AU < q (perihelion) < 1.3 AU"
        }
    },
    "is_sentry_object": false
}